CCSDS_OMM_VERS = 2.0
CREATION_DATE  = 
ORIGINATOR     = 

OBJECT_NAME    = SL-14 R/B
OBJECT_ID      = 1991-042B
CENTER_NAME    = EARTH
REF_FRAME      = TEME
TIME_SYSTEM    = UTC
MEAN_ELEMENT_THEORY = SGP/SGP4

EPOCH          = 2026-02-05T16:23:03.075072
MEAN_MOTION    = 14.81799310
ECCENTRICITY   = .0016805
INCLINATION    = 82.4901
RA_OF_ASC_NODE = 250.2036
ARG_OF_PERICENTER = 351.4925
MEAN_ANOMALY   = 8.6002

EPHEMERIS_TYPE = 0
CLASSIFICATION_TYPE = U
NORAD_CAT_ID   = 21423
ELEMENT_SET_NO = 999
REV_AT_EPOCH   = 84833
BSTAR          = .66501E-4
MEAN_MOTION_DOT = .549E-5
MEAN_MOTION_DDOT = 0

CCSDS_OMM_VERS = 2.0
CREATION_DATE  = 
ORIGINATOR     = 

OBJECT_NAME    = ERS-1
OBJECT_ID      = 1991-050A
CENTER_NAME    = EARTH
REF_FRAME      = TEME
TIME_SYSTEM    = UTC
MEAN_ELEMENT_THEORY = SGP/SGP4

EPOCH          = 2026-02-05T15:39:37.443744
MEAN_MOTION    = 14.39423060
ECCENTRICITY   = .0030986
INCLINATION    = 98.7896
RA_OF_ASC_NODE = 54.0815
ARG_OF_PERICENTER = 298.2670
MEAN_ANOMALY   = 61.5390

EPHEMERIS_TYPE = 0
CLASSIFICATION_TYPE = U
NORAD_CAT_ID   = 21574
ELEMENT_SET_NO = 999
REV_AT_EPOCH   = 81112
BSTAR          = .18401E-3
MEAN_MOTION_DOT = .529E-5
MEAN_MOTION_DDOT = 0

CCSDS_OMM_VERS = 2.0
CREATION_DATE  = 
ORIGINATOR     = 

OBJECT_NAME    = ARIANE 40 R/B
OBJECT_ID      = 1991-050F
CENTER_NAME    = EARTH
REF_FRAME      = TEME
TIME_SYSTEM    = UTC
MEAN_ELEMENT_THEORY = SGP/SGP4

EPOCH          = 2026-02-05T15:22:57.188352
MEAN_MOTION    = 14.42869728
ECCENTRICITY   = .000364
INCLINATION    = 98.2079
RA_OF_ASC_NODE = 90.0696
ARG_OF_PERICENTER = 152.7941
MEAN_ANOMALY   = 207.3441

EPHEMERIS_TYPE = 0
CLASSIFICATION_TYPE = U
NORAD_CAT_ID   = 21610
ELEMENT_SET_NO = 999
REV_AT_EPOCH   = 81437
BSTAR          = .15397E-3
MEAN_MOTION_DOT = .472E-5
MEAN_MOTION_DDOT = 0

CCSDS_OMM_VERS = 2.0
CREATION_DATE  = 
ORIGINATOR     = 

OBJECT_NAME    = INTERCOSMOS 25
OBJECT_ID      = 1991-086A
CENTER_NAME    = EARTH
REF_FRAME      = TEME
TIME_SYSTEM    = UTC
MEAN_ELEMENT_THEORY = SGP/SGP4

EPOCH          = 2026-02-05T18:55:25.440960
MEAN_MOTION    = 12.11912749
ECCENTRICITY   = .1486633
INCLINATION    = 82.6088
RA_OF_ASC_NODE = 329.2856
ARG_OF_PERICENTER = 185.6598
MEAN_ANOMALY   = 172.5877

EPHEMERIS_TYPE = 0
CLASSIFICATION_TYPE = U
NORAD_CAT_ID   = 21819
ELEMENT_SET_NO = 999
REV_AT_EPOCH   = 49282
BSTAR          = .21669E-3
MEAN_MOTION_DOT = .1117E-4
MEAN_MOTION_DDOT = 0

CCSDS_OMM_VERS = 2.0
CREATION_DATE  = 
ORIGINATOR     = 

OBJECT_NAME    = SL-8 R/B
OBJECT_ID      = 1992-008B
CENTER_NAME    = EARTH
REF_FRAME      = TEME
TIME_SYSTEM    = UTC
MEAN_ELEMENT_THEORY = SGP/SGP4

EPOCH          = 2026-02-05T19:11:50.707680
MEAN_MOTION    = 13.75969513
ECCENTRICITY   = .0033683
INCLINATION    = 82.9270
RA_OF_ASC_NODE = 291.5014
ARG_OF_PERICENTER = 222.3491
MEAN_ANOMALY   = 203.0130

EPHEMERIS_TYPE = 0
CLASSIFICATION_TYPE = U
NORAD_CAT_ID   = 21876
ELEMENT_SET_NO = 999
REV_AT_EPOCH   = 70503
BSTAR          = .65815E-4
MEAN_MOTION_DOT = .79E-6
MEAN_MOTION_DDOT = 0

CCSDS_OMM_VERS = 2.0
CREATION_DATE  = 
ORIGINATOR     = 

OBJECT_NAME    = SL-8 R/B
OBJECT_ID      = 1992-020B
CENTER_NAME    = EARTH
REF_FRAME      = TEME
TIME_SYSTEM    = UTC
MEAN_ELEMENT_THEORY = SGP/SGP4

EPOCH          = 2026-02-05T18:28:07.915584
MEAN_MOTION    = 13.75544591
ECCENTRICITY   = .0029482
INCLINATION    = 82.9324
RA_OF_ASC_NODE = 177.4542
ARG_OF_PERICENTER = 29.3011
MEAN_ANOMALY   = 80.7579

EPHEMERIS_TYPE = 0
CLASSIFICATION_TYPE = U
NORAD_CAT_ID   = 21938
ELEMENT_SET_NO = 999
REV_AT_EPOCH   = 69674
BSTAR          = .13738E-3
MEAN_MOTION_DOT = .148E-5
MEAN_MOTION_DDOT = 0

CCSDS_OMM_VERS = 2.0
CREATION_DATE  = 
ORIGINATOR     = 

OBJECT_NAME    = USA 81
OBJECT_ID      = 1992-023A
CENTER_NAME    = EARTH
REF_FRAME      = TEME
TIME_SYSTEM    = UTC
MEAN_ELEMENT_THEORY = SGP/SGP4

EPOCH          = 2026-02-05T19:17:06.753696
MEAN_MOTION    = 14.32356054
ECCENTRICITY   = .0002565
INCLINATION    = 85.0120
RA_OF_ASC_NODE = 149.8263
ARG_OF_PERICENTER = 106.0879
MEAN_ANOMALY   = 254.0596

EPHEMERIS_TYPE = 0
CLASSIFICATION_TYPE = U
NORAD_CAT_ID   = 21949
ELEMENT_SET_NO = 999
REV_AT_EPOCH   = 9022
BSTAR          = .11339E-3
MEAN_MOTION_DOT = .326E-5
MEAN_MOTION_DDOT = 0

CCSDS_OMM_VERS = 2.0
CREATION_DATE  = 
ORIGINATOR     = 

OBJECT_NAME    = COSMOS 2219
OBJECT_ID      = 1992-076A
CENTER_NAME    = EARTH
REF_FRAME      = TEME
TIME_SYSTEM    = UTC
MEAN_ELEMENT_THEORY = SGP/SGP4

EPOCH          = 2026-02-05T14:49:49.229760
MEAN_MOTION    = 14.14077153
ECCENTRICITY   = .002047
INCLINATION    = 71.0587
RA_OF_ASC_NODE = 85.1175
ARG_OF_PERICENTER = 251.3623
MEAN_ANOMALY   = 108.5277

EPHEMERIS_TYPE = 0
CLASSIFICATION_TYPE = U
NORAD_CAT_ID   = 22219
ELEMENT_SET_NO = 999
REV_AT_EPOCH   = 71384
BSTAR          = -.54219E-4
MEAN_MOTION_DOT = -.151E-5
MEAN_MOTION_DDOT = 0

CCSDS_OMM_VERS = 2.0
CREATION_DATE  = 
ORIGINATOR     = 

OBJECT_NAME    = SL-16 R/B
OBJECT_ID      = 1992-076B
CENTER_NAME    = EARTH
REF_FRAME      = TEME
TIME_SYSTEM    = UTC
MEAN_ELEMENT_THEORY = SGP/SGP4

EPOCH          = 2026-02-05T20:39:26.942400
MEAN_MOTION    = 14.16854797
ECCENTRICITY   = .0011708
INCLINATION    = 70.9981
RA_OF_ASC_NODE = 255.4220
ARG_OF_PERICENTER = 152.6009
MEAN_ANOMALY   = 292.4349

EPHEMERIS_TYPE = 0
CLASSIFICATION_TYPE = U
NORAD_CAT_ID   = 22220
ELEMENT_SET_NO = 999
REV_AT_EPOCH   = 71732
BSTAR          = .14896E-3
MEAN_MOTION_DOT = .251E-5
MEAN_MOTION_DDOT = 0

CCSDS_OMM_VERS = 2.0
CREATION_DATE  = 
ORIGINATOR     = 

OBJECT_NAME    = COSMOS 2221
OBJECT_ID      = 1992-080A
CENTER_NAME    = EARTH
REF_FRAME      = TEME
TIME_SYSTEM    = UTC
MEAN_ELEMENT_THEORY = SGP/SGP4

EPOCH          = 2026-02-05T19:15:08.152416
MEAN_MOTION    = 14.96072147
ECCENTRICITY   = .0013089
INCLINATION    = 82.5061
RA_OF_ASC_NODE = 309.6189
ARG_OF_PERICENTER = 304.6483
MEAN_ANOMALY   = 55.3504

EPHEMERIS_TYPE = 0
CLASSIFICATION_TYPE = U
NORAD_CAT_ID   = 22236
ELEMENT_SET_NO = 999
REV_AT_EPOCH   = 77602
BSTAR          = .2825E-3
MEAN_MOTION_DOT = .3203E-4
MEAN_MOTION_DDOT = 0

CCSDS_OMM_VERS = 2.0
CREATION_DATE  = 
ORIGINATOR     = 

OBJECT_NAME    = SL-16 R/B
OBJECT_ID      = 1992-093B
CENTER_NAME    = EARTH
REF_FRAME      = TEME
TIME_SYSTEM    = UTC
MEAN_ELEMENT_THEORY = SGP/SGP4

EPOCH          = 2026-02-05T14:01:44.072832
MEAN_MOTION    = 14.15441589
ECCENTRICITY   = .0005074
INCLINATION    = 71.0203
RA_OF_ASC_NODE = 71.6659
ARG_OF_PERICENTER = 327.1779
MEAN_ANOMALY   = 32.9028

EPHEMERIS_TYPE = 0
CLASSIFICATION_TYPE = U
NORAD_CAT_ID   = 22285
ELEMENT_SET_NO = 999
REV_AT_EPOCH   = 70861
BSTAR          = -.67738E-4
MEAN_MOTION_DOT = -.18E-5
MEAN_MOTION_DDOT = 0

CCSDS_OMM_VERS = 2.0
CREATION_DATE  = 
ORIGINATOR     = 

OBJECT_NAME    = COSMOS 2228
OBJECT_ID      = 1992-094A
CENTER_NAME    = EARTH
REF_FRAME      = TEME
TIME_SYSTEM    = UTC
MEAN_ELEMENT_THEORY = SGP/SGP4

EPOCH          = 2026-02-05T18:32:26.714688
MEAN_MOTION    = 14.97044251
ECCENTRICITY   = .0019295
INCLINATION    = 82.5157
RA_OF_ASC_NODE = 267.8737
ARG_OF_PERICENTER = 52.0774
MEAN_ANOMALY   = 308.2189

EPHEMERIS_TYPE = 0
CLASSIFICATION_TYPE = U
NORAD_CAT_ID   = 22286
ELEMENT_SET_NO = 999
REV_AT_EPOCH   = 77128
BSTAR          = .28659E-3
MEAN_MOTION_DOT = .3338E-4
MEAN_MOTION_DDOT = 0

